[
    {
        "CCSDS_OMM_VERS": "3.0",
        "COMMENT": "GENERATED VIA SPACE-TRACK.ORG API",
        "CREATION_DATE": "2024-10-21T17:49:28",
        "ORIGINATOR": "18 SPCS",
        "OBJECT_NAME": "COSMOS 1275",
        "OBJECT_ID": "1981-053A",
        "CENTER_NAME": "EARTH",
        "REF_FRAME": "TEME",
        "TIME_SYSTEM": "UTC",
        "MEAN_ELEMENT_THEORY": "SGP4",
        "EPOCH": "2024-10-21T04:46:33.909312",
        "MEAN_MOTION": "13.74461760",
        "ECCENTRICITY": "0.00409360",
        "INCLINATION": "82.9633",
        "RA_OF_ASC_NODE": "351.4074",
        "ARG_OF_PERICENTER": "64.1843",
        "MEAN_ANOMALY": "296.3527",
        "EPHEMERIS_TYPE": "0",
        "CLASSIFICATION_TYPE": "U",
        "NORAD_CAT_ID": "12504",
        "ELEMENT_SET_NO": "999",
        "REV_AT_EPOCH": "17630",
        "BSTAR": "0.00008765900000",
        "MEAN_MOTION_DOT": "0.00000099",
        "MEAN_MOTION_DDOT": "0.0000000000000",
        "SEMIMAJOR_AXIS": "7361.733",
        "PERIOD": "104.768",
        "APOAPSIS": "1013.734",
        "PERIAPSIS": "953.462",
        "OBJECT_TYPE": "PAYLOAD",
        "RCS_SIZE": "LARGE",
        "COUNTRY_CODE": "CIS",
        "LAUNCH_DATE": "1981-06-04",
        "SITE": "PKMTR",
        "DECAY_DATE": null,
        "FILE": "4530563",
        "GP_ID": "271178642",
        "TLE_LINE0": "0 COSMOS 1275",
        "TLE_LINE1": "1 12504U 81053A   24295.19900358  .00000099  00000-0  87659-4 0  9993",
        "TLE_LINE2": "2 12504  82.9633 351.4074 0040936  64.1843 296.3527 13.74461760176307"
    },
    {
        "CCSDS_OMM_VERS": "3.0",
        "COMMENT": "GENERATED VIA SPACE-TRACK.ORG API",
        "CREATION_DATE": "2024-10-22T07:06:17",
        "ORIGINATOR": "18 SPCS",
        "OBJECT_NAME": "SL-3 R/B",
        "OBJECT_ID": "1982-116B",
        "CENTER_NAME": "EARTH",
        "REF_FRAME": "TEME",
        "TIME_SYSTEM": "UTC",
        "MEAN_ELEMENT_THEORY": "SGP4",
        "EPOCH": "2024-10-21T23:34:18.940224",
        "MEAN_MOTION": "14.15003133",
        "ECCENTRICITY": "0.00701310",
        "INCLINATION": "81.2529",
        "RA_OF_ASC_NODE": "250.8263",
        "ARG_OF_PERICENTER": "256.0255",
        "MEAN_ANOMALY": "146.0253",
        "EPHEMERIS_TYPE": "0",
        "CLASSIFICATION_TYPE": "U",
        "NORAD_CAT_ID": "13719",
        "ELEMENT_SET_NO": "999",
        "REV_AT_EPOCH": "15981",
        "BSTAR": "0.00017144000000",
        "MEAN_MOTION_DOT": "0.00000352",
        "MEAN_MOTION_DDOT": "0.0000000000000",
        "SEMIMAJOR_AXIS": "7220.439",
        "PERIOD": "101.767",
        "APOAPSIS": "892.941",
        "PERIAPSIS": "791.666",
        "OBJECT_TYPE": "ROCKET BODY",
        "RCS_SIZE": "LARGE",
        "COUNTRY_CODE": "CIS",
        "LAUNCH_DATE": "1982-12-14",
        "SITE": "PKMTR",
        "DECAY_DATE": null,
        "FILE": "4530760",
        "GP_ID": "271239392",
        "TLE_LINE0": "0 SL-3 R/B",
        "TLE_LINE1": "1 13719U 82116B   24295.98216366  .00000352  00000-0  17144-3 0  9992",
        "TLE_LINE2": "2 13719  81.2529 250.8263 0070131 256.0255 146.0253 14.15003133159819"
    },
    {
        "CCSDS_OMM_VERS": "3.0",
        "COMMENT": "GENERATED VIA SPACE-TRACK.ORG API",
        "CREATION_DATE": "2024-10-22T04:17:00",
        "ORIGINATOR": "18 SPCS",
        "OBJECT_NAME": "SL-8 R/B",
        "OBJECT_ID": "1983-021B",
        "CENTER_NAME": "EARTH",
        "REF_FRAME": "TEME",
        "TIME_SYSTEM": "UTC",
        "MEAN_ELEMENT_THEORY": "SGP4",
        "EPOCH": "2024-10-21T20:11:53.027808",
        "MEAN_MOTION": "13.77034511",
        "ECCENTRICITY": "0.00273140",
        "INCLINATION": "82.9446",
        "RA_OF_ASC_NODE": "52.6616",
        "ARG_OF_PERICENTER": "301.3140",
        "MEAN_ANOMALY": "233.0617",
        "EPHEMERIS_TYPE": "0",
        "CLASSIFICATION_TYPE": "U",
        "NORAD_CAT_ID": "13917",
        "ELEMENT_SET_NO": "999",
        "REV_AT_EPOCH": "8863",
        "BSTAR": "0.00020583000000",
        "MEAN_MOTION_DOT": "0.00000219",
        "MEAN_MOTION_DDOT": "0.0000000000000",
        "SEMIMAJOR_AXIS": "7352.561",
        "PERIOD": "104.573",
        "APOAPSIS": "994.509",
        "PERIAPSIS": "954.343",
        "OBJECT_TYPE": "ROCKET BODY",
        "RCS_SIZE": "LARGE",
        "COUNTRY_CODE": "CIS",
        "LAUNCH_DATE": "1983-03-24",
        "SITE": "PKMTR",
        "DECAY_DATE": null,
        "FILE": "4530606",
        "GP_ID": "271210146",
        "TLE_LINE0": "0 SL-8 R/B",
        "TLE_LINE1": "1 13917U 83021B   24295.84158597  .00000219  00000-0  20583-3 0  9997",
        "TLE_LINE2": "2 13917  82.9446  52.6616 0027314 301.3140 233.0617 13.77034511 88630"
    },
    {
        "CCSDS_OMM_VERS": "3.0",
        "COMMENT": "GENERATED VIA SPACE-TRACK.ORG API",
        "CREATION_DATE": "2024-10-22T04:17:00",
        "ORIGINATOR": "18 SPCS",
        "OBJECT_NAME": "SL-8 R/B",
        "OBJECT_ID": "1984-003B",
        "CENTER_NAME": "EARTH",
        "REF_FRAME": "TEME",
        "TIME_SYSTEM": "UTC",
        "MEAN_ELEMENT_THEORY": "SGP4",
        "EPOCH": "2024-10-21T22:19:40.322784",
        "MEAN_MOTION": "13.74568852",
        "ECCENTRICITY": "0.00216740",
        "INCLINATION": "82.9285",
        "RA_OF_ASC_NODE": "176.5269",
        "ARG_OF_PERICENTER": "166.3323",
        "MEAN_ANOMALY": "319.7611",
        "EPHEMERIS_TYPE": "0",
        "CLASSIFICATION_TYPE": "U",
        "NORAD_CAT_ID": "14625",
        "ELEMENT_SET_NO": "999",
        "REV_AT_EPOCH": "4470",
        "BSTAR": "0.00016276000000",
        "MEAN_MOTION_DOT": "0.00000170",
        "MEAN_MOTION_DDOT": "0.0000000000000",
        "SEMIMAJOR_AXIS": "7361.351",
        "PERIOD": "104.760",
        "APOAPSIS": "999.171",
        "PERIAPSIS": "967.261",
        "OBJECT_TYPE": "ROCKET BODY",
        "RCS_SIZE": "LARGE",
        "COUNTRY_CODE": "CIS",
        "LAUNCH_DATE": "1984-01-11",
        "SITE": "PKMTR",
        "DECAY_DATE": null,
        "FILE": "4530606",
        "GP_ID": "271209750",
        "TLE_LINE0": "0 SL-8 R/B",
        "TLE_LINE1": "1 14625U 84003B   24295.93032781  .00000170  00000-0  16276-3 0  9991",
        "TLE_LINE2": "2 14625  82.9285 176.5269 0021674 166.3323 319.7611 13.74568852 44706"
    },
    {
        "CCSDS_OMM_VERS": "3.0",
        "COMMENT": "GENERATED VIA SPACE-TRACK.ORG API",
        "CREATION_DATE": "2024-10-22T06:46:17",
        "ORIGINATOR": "18 SPCS",
        "OBJECT_NAME": "SL-12 R/B(2)",
        "OBJECT_ID": "1984-106B",
        "CENTER_NAME": "EARTH",
        "REF_FRAME": "TEME",
        "TIME_SYSTEM": "UTC",
        "MEAN_ELEMENT_THEORY": "SGP4",
        "EPOCH": "2024-10-22T03:14:41.083872",
        "MEAN_MOTION": "14.15428966",
        "ECCENTRICITY": "0.00047830",
        "INCLINATION": "71.0011",
        "RA_OF_ASC_NODE": "166.9745",
        "ARG_OF_PERICENTER": "216.4809",
        "MEAN_ANOMALY": "143.5988",
        "EPHEMERIS_TYPE": "0",
        "CLASSIFICATION_TYPE": "U",
        "NORAD_CAT_ID": "15334",
        "ELEMENT_SET_NO": "999",
        "REV_AT_EPOCH": "94883",
        "BSTAR": "0.00003530000000",
        "MEAN_MOTION_DOT": "0.00000021",
        "MEAN_MOTION_DDOT": "0.0000000000000",
        "SEMIMAJOR_AXIS": "7218.990",
        "PERIOD": "101.736",
        "APOAPSIS": "844.308",
        "PERIAPSIS": "837.402",
        "OBJECT_TYPE": "ROCKET BODY",
        "RCS_SIZE": "LARGE",
        "COUNTRY_CODE": "CIS",
        "LAUNCH_DATE": "1984-09-28",
        "SITE": "TTMTR",
        "DECAY_DATE": null,
        "FILE": "4530680",
        "GP_ID": "271237325",
        "TLE_LINE0": "0 SL-12 R/B(2)",
        "TLE_LINE1": "1 15334U 84106B   24296.13519773  .00000021  00000-0  35300-4 0  9992",
        "TLE_LINE2": "2 15334  71.0011 166.9745 0004783 216.4809 143.5988 14.15428966948834"
    },
    {
        "CCSDS_OMM_VERS": "3.0",
        "COMMENT": "GENERATED VIA SPACE-TRACK.ORG API",
        "CREATION_DATE": "2024-10-21T17:49:28",
        "ORIGINATOR": "18 SPCS",
        "OBJECT_NAME": "SL-12 R/B(2)",
        "OBJECT_ID": "1985-042D",
        "CENTER_NAME": "EARTH",
        "REF_FRAME": "TEME",
        "TIME_SYSTEM": "UTC",
        "MEAN_ELEMENT_THEORY": "SGP4",
        "EPOCH": "2024-10-21T10:07:32.345760",
        "MEAN_MOTION": "14.21733511",
        "ECCENTRICITY": "0.00357230",
        "INCLINATION": "71.1074",
        "RA_OF_ASC_NODE": "72.9151",
        "ARG_OF_PERICENTER": "194.1671",
        "MEAN_ANOMALY": "234.6553",
        "EPHEMERIS_TYPE": "0",
        "CLASSIFICATION_TYPE": "U",
        "NORAD_CAT_ID": "15772",
        "ELEMENT_SET_NO": "999",
        "REV_AT_EPOCH": "4271",
        "BSTAR": "0.00022765000000",
        "MEAN_MOTION_DOT": "0.00000456",
        "MEAN_MOTION_DDOT": "0.0000000000000",
        "SEMIMAJOR_AXIS": "7197.633",
        "PERIOD": "101.285",
        "APOAPSIS": "845.210",
        "PERIAPSIS": "793.786",
        "OBJECT_TYPE": "ROCKET BODY",
        "RCS_SIZE": "LARGE",
        "COUNTRY_CODE": "CIS",
        "LAUNCH_DATE": "1985-05-30",
        "SITE": "TTMTR",
        "DECAY_DATE": null,
        "FILE": "4530563",
        "GP_ID": "271179637",
        "TLE_LINE0": "0 SL-12 R/B(2)",
        "TLE_LINE1": "1 15772U 85042D   24295.42190215  .00000456  00000-0  22765-3 0  9997",
        "TLE_LINE2": "2 15772  71.1074  72.9151 0035723 194.1671 234.6553 14.21733511 42718"
    }
]